{"spkid": "20741491", "covariance": {"labels": ["e", "q", "tp", "node", "peri", "i"], "elements": [{"name": "e", "sigma": 7.04465191367956e-08, "value": ".7381782091652764", "title": "eccentricity", "units": null, "label": "e"}, {"units": "au", "value": ".4294193786917295", "title": "perihelion distance", "sigma": 1.16444154061401e-07, "name": "q", "label": "q"}, {"label": "tp", "sigma": 1.48825493508252e-05, "name": "tp", "title": "time of perihelion passage", "value": "2456761.189616309868", "units": "TDB"}, {"name": "om", "sigma": 1.26235563218164e-05, "title": "longitude of the ascending node", "value": "322.3726330327626", "units": "deg", "label": "node"}, {"label": "peri", "units": "deg", "title": "argument of perihelion", "value": "71.59268405399999", "sigma": 1.63776017306731e-05, "name": "w"}, {"label": "i", "sigma": 1.38271185810978e-05, "name": "i", "units": "deg", "title": "inclination", "value": "16.46983384839188"}], "data": [["4.962712058490912E-15", "-8.202215172821853E-15", "-2.189326045865455E-13", "8.002633282111476E-14", "-7.593972631537857E-13", "1.370558833895539E-13"], ["-8.202215172821853E-15", "1.35592410150753E-14", "3.822670544215992E-13", "-1.282093790928361E-13", "1.251470518799885E-12", "-2.186285488796662E-13"], ["-2.189326045865455E-13", "3.822670544215992E-13", "2.214902751797481E-10", "4.537498272854415E-11", "1.056038315023854E-11", "5.24634657889456E-11"], ["8.002633282111476E-14", "-1.282093790928361E-13", "4.537498272854415E-11", "1.593541742100697E-10", "-1.560117944068577E-10", "8.495890251049735E-11"], ["-7.593972631537857E-13", "1.251470518799885E-12", "1.056038315023854E-11", "-1.560117944068577E-10", "2.68225838448545E-10", "-9.989482897974323E-11"], ["1.370558833895539E-13", "-2.186285488796662E-13", "5.24634657889456E-11", "8.495890251049735E-11", "-9.989482897974323E-11", "1.911892082557389E-10"]], "epoch": "2456399.5"}, "elements": [{"units": null, "title": "eccentricity", "value": ".7381437308911476", "name": "e", "sigma": "7.0481E-8", "label": "e"}, {"units": "au", "title": "semi-major axis", "value": "1.639839530771849", "sigma": "5.1243E-9", "name": "a", "label": "a"}, {"label": "q", "title": "perihelion distance", "value": ".4294022614651276", "units": "au", "sigma": "1.1655E-7", "name": "q"}, {"units": "deg", "value": "16.44727996153251", "title": "inclination; angle with respect to x-y ecliptic plane", "name": "i", "sigma": "1.3812E-5", "label": "i"}, {"sigma": "1.2686E-5", "name": "om", "units": "deg", "title": "longitude of the ascending node", "value": "322.0558553798554", "label": "node"}, {"label": "peri", "units": "deg", "value": "71.91129960188606", "title": "argument of perihelion", "name": "w", "sigma": "1.6396E-5"}, {"title": "mean anomaly", "value": "283.450820728313", "units": "deg", "name": "ma", "sigma": "1.755E-5", "label": "M"}, {"label": "tp", "value": "2461363.594190723283", "title": "time of perihelion passage", "units": "TDB", "sigma": "3.8072E-5", "name": "tp"}, {"label": "period", "units": "d", "value": "767.0089897632417", "title": "sidereal orbital period", "sigma": "3.5952E-6", "name": "per"}, {"label": "n", "sigma": "2.2E-9", "name": "n", "value": ".4693556461588851", "title": "mean motion", "units": "deg/d"}, {"label": "Q", "units": "au", "title": "aphelion distance", "value": "2.850276800078571", "sigma": "8.9068E-9", "name": "ad"}], "epoch": "2461200.5"}